OBJECT_NAME,OBJECT_ID,EPOCH,MEAN_MOTION,ECCENTRICITY,INCLINATION,RA_OF_ASC_NODE,ARG_OF_PERICENTER,MEAN_ANOMALY,EPHEMERIS_TYPE,CLASSIFICATION_TYPE,NORAD_CAT_ID,ELEMENT_SET_NO,REV_AT_EPOCH,BSTAR,MEAN_MOTION_DOT,MEAN_MOTION_DDOT
ONEWEB-0309,2021-075W,2026-06-17T13:04:17.414400,13.17648791,.0001969,87.9134,5.7918,102.8946,257.2405,0,U,49095,999,23362,-.1381E-3,-.41E-6,0
ONEWEB-0310,2021-075X,2026-06-17T22:07:17.925600,13.12443459,.0001814,87.8939,350.5342,91.7640,268.3696,0,U,49096,999,23528,-.14165352E-2,-.497E-5,0
ONEWEB-0311,2021-075Y,2026-06-17T22:20:45.428640,13.17650010,.0002275,87.9135,5.7144,82.0131,278.1259,0,U,49097,999,23372,.18984632E-3,.87E-6,0
ONEWEB-0312,2021-075Z,2026-06-17T22:42:38.121120,13.17653149,.00021996,87.9131,5.7220,91.0504,269.0880,0,U,49098,999,23370,.1328108E-3,.64E-6,0
ONEWEB-0313,2021-075AA,2026-06-17T11:53:37.395744,13.17648516,.00019912,87.9128,5.8177,86.3585,273.7774,0,U,49099,999,23363,-.67137451E-4,-.13E-6,0
ONEWEB-0314,2021-075AB,2026-06-17T12:54:35.112096,13.17649329,.0002238,87.9141,5.7818,91.0792,269.0596,0,U,49100,999,23361,-.60206E-4,-.1E-6,0
ONEWEB-0315,2021-075AC,2026-06-17T12:19:22.227744,13.12442477,.00020597,87.8948,350.5793,81.7220,278.4142,0,U,49101,999,23521,.1667932E-3,.73E-6,0
ONEWEB-0316,2021-075AD,2026-06-17T20:12:03.164256,13.18687252,.00019076,87.9165,335.3256,92.0167,268.1183,0,U,49102,999,23729,-.59658168E-4,-.11E-6,0
ONEWEB-0317,2021-075AE,2026-06-17T21:33:09.505152,13.12442730,.00015715,87.8950,350.5267,114.3501,245.7792,0,U,49103,999,23528,.58930534E-4,.34E-6,0
ONEWEB-0318,2021-075AF,2026-06-17T21:56:27.952224,13.18685857,.00019947,87.9171,335.3128,86.9570,273.1791,0,U,49104,999,23726,-.3702445E-5,.11E-6,0
ONEWEB-0319,2021-075AG,2026-06-17T15:05:47.358240,13.17650015,.00021898,87.9133,5.7800,76.4578,283.6798,0,U,49105,999,23366,.11990716E-3,.59E-6,0
ONEWEB-0323,2021-075AH,2026-06-17T21:06:19.749600,13.12443556,.00022982,87.8949,350.5116,81.8919,278.2470,0,U,49106,999,23464,.11961946E-2,.443E-5,0
ONEWEB-0329,2021-075AJ,2026-06-17T11:39:14.749632,13.17649100,.0002019,87.9133,5.8091,88.7855,271.3507,0,U,49107,999,23362,-.6445662E-4,-.12E-6,0
ONEWEB-0330,2021-075AK,2026-06-17T12:13:23.749824,13.17695999,.00014369,87.9132,5.8249,92.5205,267.6091,0,U,49108,999,23366,.1473145E-1,.574E-4,0
ONEWEB-0292,2021-083A,2026-06-17T20:25:40.495296,13.13472307,.0001915,87.8952,320.1058,92.3366,267.7982,0,U,49186,999,23101,.35440205E-4,.26E-6,0
ONEWEB-0303,2021-083B,2026-06-17T20:02:20.565600,13.18686780,.00019676,87.9166,335.3272,89.6545,270.4812,0,U,49187,999,23006,-.45964905E-4,-.5E-7,0
ONEWEB-0306,2021-083C,2026-06-17T21:37:01.788960,13.18686924,.00017706,87.9171,335.3021,99.4338,260.6994,0,U,49188,999,23011,.51422001E-4,.33E-6,0
ONEWEB-0307,2021-083D,2026-06-17T20:17:08.054304,13.13470950,.00019532,87.8956,320.1043,94.7127,265.4225,0,U,49189,999,23101,-.38669459E-3,-.128E-5,0
ONEWEB-0320,2021-083E,2026-06-17T22:06:09.767232,13.18686151,.00018157,87.9161,335.3160,94.4945,265.6394,0,U,49190,999,23007,.4604177E-5,.15E-6,0
ONEWEB-0321,2021-083F,2026-06-17T19:22:13.503936,13.20772474,.00018271,87.9195,274.3111,107.7100,252.4233,0,U,49191,999,23691,.14475536E-3,.72E-6,0
ONEWEB-0322,2021-083G,2026-06-17T20:11:00.689280,13.13468647,.00014271,87.8952,320.1054,102.8884,257.2405,0,U,49192,999,23100,-.60681175E-3,-.209E-5,0
ONEWEB-0324,2021-083H,2026-06-17T10:31:44.580288,13.18685128,.00019896,87.9171,335.3994,97.6604,262.4754,0,U,49193,999,23003,.29014527E-4,.24E-6,0
ONEWEB-0325,2021-083J,2026-06-17T19:42:54.935424,13.18685771,.00018231,87.9162,335.3316,91.0968,269.0373,0,U,49194,999,23009,.53666283E-4,.34E-6,0
ONEWEB-0326,2021-083K,2026-06-17T20:04:58.320768,13.18684396,.00019677,87.9171,335.3264,85.7881,274.3476,0,U,49195,999,23008,-.26057901E-3,-.9E-6,0
ONEWEB-0327,2021-083L,2026-06-17T20:04:34.032864,13.18684796,.0001916,87.9163,335.3306,81.2192,278.9158,0,U,49196,999,23010,-.12219516E-3,-.35E-6,0
ONEWEB-0328,2021-083M,2026-06-17T19:56:24.532800,13.13469842,.00019679,87.8962,320.0805,99.3809,260.7542,0,U,49197,999,23098,-.9012068E-3,-.316E-5,0
ONEWEB-0331,2021-083N,2026-06-17T21:44:18.609216,13.18686679,.00020944,87.9171,335.3064,86.1257,274.0115,0,U,49198,999,23010,.41437232E-4,.29E-6,0
ONEWEB-0333,2021-083P,2026-06-17T19:49:05.648448,13.13469395,.00018277,87.8953,320.1075,95.1402,264.9936,0,U,49199,999,23099,-.67401044E-3,-.233E-5,0
ONEWEB-0334,2021-083Q,2026-06-17T19:44:53.318112,13.21260361,.00014208,87.9193,274.3189,129.5081,230.6178,0,U,49200,999,23687,-.15543213E-4,.7E-7,0
ONEWEB-0335,2021-083R,2026-06-17T19:41:47.026752,13.13470000,.00019902,87.8955,320.1056,92.7745,267.3612,0,U,49201,999,23100,-.54660844E-3,-.187E-5,0
