[
  {
    "name": "ONEWEB-0309",
    "noradId": "49095",
    "line1": "1 49095U 21075W   26168.54464600 -.00000041  00000+0 -13810-3 0  9996",
    "line2": "2 49095  87.9134   5.7918 0001969 102.8946 257.2405 13.17648791233624"
  },
  {
    "name": "ONEWEB-0310",
    "noradId": "49096",
    "line1": "1 49096U 21075X   26168.92173525 -.00000497  00000+0 -14165-2 0  9990",
    "line2": "2 49096  87.8939 350.5342 0001814  91.7640 268.3696 13.12443459235283"
  },
  {
    "name": "ONEWEB-0311",
    "noradId": "49097",
    "line1": "1 49097U 21075Y   26168.93108135  .00000087  00000+0  18985-3 0  9995",
    "line2": "2 49097  87.9135   5.7144 0002275  82.0131 278.1259 13.17650010233721"
  },
  {
    "name": "ONEWEB-0312",
    "noradId": "49098",
    "line1": "1 49098U 21075Z   26168.94627455  .00000064  00000+0  13281-3 0  9997",
    "line2": "2 49098  87.9131   5.7220 0002199  91.0504 269.0880 13.17653149233705"
  },
  {
    "name": "ONEWEB-0313",
    "noradId": "49099",
    "line1": "1 49099U 21075AA  26168.49557171 -.00000013  00000+0 -67137-4 0  9991",
    "line2": "2 49099  87.9128   5.8177 0001991  86.3585 273.7774 13.17648516233637"
  },
  {
    "name": "ONEWEB-0314",
    "noradId": "49100",
    "line1": "1 49100U 21075AB  26168.53790639 -.00000010  00000+0 -60206-4 0  9994",
    "line2": "2 49100  87.9141   5.7818 0002238  91.0792 269.0596 13.17649329233615"
  },
  {
    "name": "ONEWEB-0315",
    "noradId": "49101",
    "line1": "1 49101U 21075AC  26168.51345171  .00000073  00000+0  16679-3 0  9991",
    "line2": "2 49101  87.8948 350.5793 0002059  81.7220 278.4142 13.12442477235215"
  },
  {
    "name": "ONEWEB-0316",
    "noradId": "49102",
    "line1": "1 49102U 21075AD  26168.84170329 -.00000011  00000+0 -59658-4 0  9998",
    "line2": "2 49102  87.9165 335.3256 0001907  92.0167 268.1183 13.18687252237298"
  },
  {
    "name": "ONEWEB-0317",
    "noradId": "49103",
    "line1": "1 49103U 21075AE  26168.89802668  .00000034  00000+0  58931-4 0  9998",
    "line2": "2 49103  87.8950 350.5267 0001571 114.3501 245.7792 13.12442730235286"
  },
  {
    "name": "ONEWEB-0318",
    "noradId": "49104",
    "line1": "1 49104U 21075AF  26168.91421241  .00000011  00000+0 -37024-5 0  9993",
    "line2": "2 49104  87.9171 335.3128 0001994  86.9570 273.1791 13.18685857237268"
  },
  {
    "name": "ONEWEB-0319",
    "noradId": "49105",
    "line1": "1 49105U 21075AG  26168.62902035  .00000059  00000+0  11991-3 0  9991",
    "line2": "2 49105  87.9133   5.7800 0002189  76.4578 283.6798 13.17650015233661"
  },
  {
    "name": "ONEWEB-0323",
    "noradId": "49106",
    "line1": "1 49106U 21075AH  26168.87939525  .00000443  00000+0  11962-2 0  9997",
    "line2": "2 49106  87.8949 350.5116 0002298  81.8919 278.2470 13.12443556234648"
  },
  {
    "name": "ONEWEB-0329",
    "noradId": "49107",
    "line1": "1 49107U 21075AJ  26168.48558738 -.00000012  00000+0 -64457-4 0  9991",
    "line2": "2 49107  87.9133   5.8091 0002019  88.7855 271.3507 13.17649100233623"
  },
  {
    "name": "ONEWEB-0330",
    "noradId": "49108",
    "line1": "1 49108U 21075AK  26168.50930266  .00005740  00000+0  14731-1 0  9993",
    "line2": "2 49108  87.9132   5.8249 0001436  92.5205 267.6091 13.17695999233669"
  },
  {
    "name": "ONEWEB-0292",
    "noradId": "49186",
    "line1": "1 49186U 21083A   26168.85116314  .00000026  00000+0  35440-4 0  9991",
    "line2": "2 49186  87.8952 320.1058 0001915  92.3366 267.7982 13.13472307231012"
  },
  {
    "name": "ONEWEB-0303",
    "noradId": "49187",
    "line1": "1 49187U 21083B   26168.83496025 -.00000005  00000+0 -45965-4 0  9992",
    "line2": "2 49187  87.9166 335.3272 0001967  89.6545 270.4812 13.18686780230066"
  },
  {
    "name": "ONEWEB-0306",
    "noradId": "49188",
    "line1": "1 49188U 21083C   26168.90071515  .00000033  00000+0  51422-4 0  9998",
    "line2": "2 49188  87.9171 335.3021 0001770  99.4338 260.6994 13.18686924230114"
  },
  {
    "name": "ONEWEB-0307",
    "noradId": "49189",
    "line1": "1 49189U 21083D   26168.84523211 -.00000128  00000+0 -38669-3 0  9991",
    "line2": "2 49189  87.8956 320.1043 0001953  94.7127 265.4225 13.13470950231013"
  },
  {
    "name": "ONEWEB-0320",
    "noradId": "49190",
    "line1": "1 49190U 21083E   26168.92094638  .00000015  00000+0  46042-5 0  9997",
    "line2": "2 49190  87.9161 335.3160 0001815  94.4945 265.6394 13.18686151230075"
  },
  {
    "name": "ONEWEB-0321",
    "noradId": "49191",
    "line1": "1 49191U 21083F   26168.80710074  .00000072  00000+0  14476-3 0  9991",
    "line2": "2 49191  87.9195 274.3111 0001827 107.7100 252.4233 13.20772474236917"
  },
  {
    "name": "ONEWEB-0322",
    "noradId": "49192",
    "line1": "1 49192U 21083G   26168.84098020 -.00000209  00000+0 -60681-3 0  9999",
    "line2": "2 49192  87.8952 320.1054 0001427 102.8884 257.2405 13.13468647231000"
  },
  {
    "name": "ONEWEB-0324",
    "noradId": "49193",
    "line1": "1 49193U 21083H   26168.43871042  .00000024  00000+0  29015-4 0  9998",
    "line2": "2 49193  87.9171 335.3994 0001989  97.6604 262.4754 13.18685128230037"
  },
  {
    "name": "ONEWEB-0325",
    "noradId": "49194",
    "line1": "1 49194U 21083J   26168.82146916  .00000034  00000+0  53666-4 0  9997",
    "line2": "2 49194  87.9162 335.3316 0001823  91.0968 269.0373 13.18685771230094"
  },
  {
    "name": "ONEWEB-0326",
    "noradId": "49195",
    "line1": "1 49195U 21083K   26168.83678612 -.00000090  00000+0 -26058-3 0  9990",
    "line2": "2 49195  87.9171 335.3264 0001967  85.7881 274.3476 13.18684396230084"
  },
  {
    "name": "ONEWEB-0327",
    "noradId": "49196",
    "line1": "1 49196U 21083L   26168.83650501 -.00000035  00000+0 -12220-3 0  9993",
    "line2": "2 49196  87.9163 335.3306 0001916  81.2192 278.9158 13.18684796230107"
  },
  {
    "name": "ONEWEB-0328",
    "noradId": "49197",
    "line1": "1 49197U 21083M   26168.83083950 -.00000316  00000+0 -90121-3 0  9990",
    "line2": "2 49197  87.8962 320.0805 0001967  99.3809 260.7542 13.13469842230980"
  },
  {
    "name": "ONEWEB-0331",
    "noradId": "49198",
    "line1": "1 49198U 21083N   26168.90577094  .00000029  00000+0  41437-4 0  9992",
    "line2": "2 49198  87.9171 335.3064 0002094  86.1257 274.0115 13.18686679230105"
  },
  {
    "name": "ONEWEB-0333",
    "noradId": "49199",
    "line1": "1 49199U 21083P   26168.82575982 -.00000233  00000+0 -67401-3 0  9995",
    "line2": "2 49199  87.8953 320.1075 0001827  95.1402 264.9936 13.13469395230997"
  },
  {
    "name": "ONEWEB-0334",
    "noradId": "49200",
    "line1": "1 49200U 21083Q   26168.82283933  .00000007  00000+0 -15543-4 0  9999",
    "line2": "2 49200  87.9193 274.3189 0001420 129.5081 230.6178 13.21260361236879"
  },
  {
    "name": "ONEWEB-0335",
    "noradId": "49201",
    "line1": "1 49201U 21083R   26168.82068318 -.00000187  00000+0 -54661-3 0  9991",
    "line2": "2 49201  87.8955 320.1056 0001990  92.7745 267.3612 13.13470000231002"
  }
]